63860,STARLINK-33888,2025,94.27,-1.0,+,43.0,Active,0,LEO,USA,USA,Unknown,Unknown,Unknown,1 63860U 25093AA  25280.24302184  .00024123  00000+0  88275-3 0  9997,2 63860  43.0046 224.5434 0001228 302.2933  57.7800 15.27600127 24500,15.27600127,0.0001228,LEO
63861,STARLINK-33896,2025,94.26,-1.0,+,43.0,Active,0,LEO,USA,USA,Unknown,Unknown,Unknown,1 63861U 25093AB  25280.24815377  .00020240  00000+0  74283-3 0  9991,2 63861  43.0051 224.5841 0002110 247.0673 112.9956 15.27587123 24288,15.27587123,0.000211,LEO
63862,STARLINK-33878,2025,94.26,-1.0,+,43.0,Active,0,LEO,USA,USA,Unknown,Unknown,Unknown,1 63862U 25093AC  25280.24943887  .00037371  00000+0  13588-2 0  9993,2 63862  43.0040 224.5643 0001654 270.9796  89.0866 15.27624170 24491,15.2762417,0.0001654,LEO
63863,STARLINK-33954,2025,94.26,-1.0,+,43.0,Active,0,LEO,USA,USA,Unknown,Unknown,Unknown,1 63863U 25093AD  25280.25715183  .00036120  00000+0  13142-2 0  9998,2 63863  43.0030 224.6461 0001687 270.3874  89.6784 15.27617926 24280,15.27617926,0.0001687,LEO
63864,STARLINK-33863,2025,96.05,-1.0,+,70.0,Active,0,LEO,USA,USA,Unknown,Unknown,Unknown,1 63864U 25094A   25280.31137097 -.00006491  00000+0 -53665-3 0  9994,2 63864  70.0005 261.3798 0002565 263.9698  96.1169 14.98337466 24221,14.98337466,0.0002565,LEO
63865,STARLINK-33897,2025,96.05,-1.0,+,70.0,Active,0,LEO,USA,USA,Unknown,Unknown,Unknown,1 63865U 25094B   25280.35429549  .00005919  00000+0  49290-3 0  9996,2 63865  69.9997 261.1223 0002763 273.4595  86.6249 14.99151408 24451,14.99151408,0.0002763,LEO
63866,STARLINK-34022,2025,96.05,-1.0,+,70.0,Active,0,LEO,USA,USA,Unknown,Unknown,Unknown,1 63866U 25094C   25280.36161226  .00005834  00000+0  49620-3 0  9996,2 63866  70.0001 261.1453 0002880 272.9886  87.0944 14.98343374 24230,14.98343374,0.000288,LEO
63867,STARLINK-33979,2025,96.05,-1.0,+,70.0,Active,0,LEO,USA,USA,Unknown,Unknown,Unknown,1 63867U 25094D   25280.35610394 -.00005322  00000+0 -42951-3 0  9995,2 63867  70.0000 261.1314 0002890 271.7498  88.3331 14.99129650 24237,14.9912965,0.000289,LEO
63868,STARLINK-34007,2025,96.06,-1.0,+,70.0,Active,0,LEO,USA,USA,Unknown,Unknown,Unknown,1 63868U 25094E   25280.37718000  .00011198  00000+0  92552-3 0  9999,2 63868  69.9999 261.2045 0003108 264.7710  95.3095 14.99127499 24230,14.99127499,0.0003108,LEO
63869,STARLINK-34006,2025,96.05,-1.0,+,70.0,Active,0,LEO,USA,USA,Unknown,Unknown,Unknown,1 63869U 25094F   25280.40113198  .00004154  00000+0  34841-3 0  9992,2 63869  70.0007 260.8833 0002718 270.0102  90.0746 14.99138113 24246,14.99138113,0.0002718,LEO
63870,STARLINK-33986,2025,96.11,-1.0,+,70.0,Active,0,LEO,USA,USA,Unknown,Unknown,Unknown,1 63870U 25094G   25280.40751990 -.00002673  00000+0 -21644-3 0  9995,2 63870  70.0005 260.9023 0003075 279.1772  80.9039 14.98304671 24244,14.98304671,0.0003075,LEO
63871,STARLINK-34013,2025,96.05,-1.0,+,70.01,Active,0,LEO,USA,USA,Unknown,Unknown,Unknown,1 63871U 25094H   25280.66670139 -.00010504  00000+0 -85541-3 0  9997,2 63871  70.0003 260.1984 0002813 270.7281  98.1721 14.99149203  5766,14.99149203,0.0002813,LEO
63872,STARLINK-34059,2025,96.05,-1.0,+,70.0,Active,0,LEO,USA,USA,Unknown,Unknown,Unknown,1 63872U 25094J   25280.37325553  .00003888  00000+0  32652-3 0  9993,2 63872  69.9995 261.1923 0003265 273.3580  86.7206 14.99152786 24235,14.99152786,0.0003265,LEO
63873,STARLINK-33987,2025,96.06,-1.0,+,70.0,Active,0,LEO,USA,USA,Unknown,Unknown,Unknown,1 63873U 25094K   25280.40338898  .00003568  00000+0  30019-3 0  9994,2 63873  69.9998 260.8929 0003586 279.2967  80.7787 14.99159201 24249,14.99159201,0.0003586,LEO
63874,STARLINK-34052,2025,96.11,-1.0,+,70.0,Active,0,LEO,USA,USA,Unknown,Unknown,Unknown,1 63874U 25094L   25280.36562121  .00003791  00000+0  32520-3 0  9995,2 63874  69.9998 261.1619 0002949 276.8619  83.2204 14.98343588 24232,14.98343588,0.0002949,LEO
63875,STARLINK-34023,2025,96.05,-1.0,+,70.0,Active,0,LEO,USA,USA,Unknown,Unknown,Unknown,1 63875U 25094M   25280.40157213  .00004167  00000+0  34935-3 0  9993,2 63875  70.0003 260.8849 0003085 268.3499  91.7307 14.99153294 24241,14.99153294,0.0003085,LEO
