[{"OBJECT_NAME":"STARLINK-33888","OBJECT_ID":"2025-093AA","EPOCH":"2025-10-07T05:49:57.086976","MEAN_MOTION":15.27600127,"ECCENTRICITY":0.00012286,"INCLINATION":43.0046,"RA_OF_ASC_NODE":224.5434,"ARG_OF_PERICENTER":302.2933,"MEAN_ANOMALY":57.78,"EPHEMERIS_TYPE":0,"CLASSIFICATION_TYPE":"U","NORAD_CAT_ID":63860,"ELEMENT_SET_NO":999,"REV_AT_EPOCH":2450,"BSTAR":0.00088274808,"MEAN_MOTION_DOT":0.00024123,"MEAN_MOTION_DDOT":0},{"OBJECT_NAME":"STARLINK-33896","OBJECT_ID":"2025-093AB","EPOCH":"2025-10-07T05:57:20.485728","MEAN_MOTION":15.27587123,"ECCENTRICITY":0.00021106,"INCLINATION":43.0051,"RA_OF_ASC_NODE":224.5841,"ARG_OF_PERICENTER":247.0673,"MEAN_ANOMALY":112.9956,"EPHEMERIS_TYPE":0,"CLASSIFICATION_TYPE":"U","NORAD_CAT_ID":63861,"ELEMENT_SET_NO":999,"REV_AT_EPOCH":2428,"BSTAR":0.00074282657,"MEAN_MOTION_DOT":0.0002024,"MEAN_MOTION_DDOT":0},{"OBJECT_NAME":"STARLINK-33878","OBJECT_ID":"2025-093AC","EPOCH":"2025-10-07T05:59:11.518368","MEAN_MOTION":15.2762417,"ECCENTRICITY":0.00016546,"INCLINATION":43.004,"RA_OF_ASC_NODE":224.5643,"ARG_OF_PERICENTER":270.9796,"MEAN_ANOMALY":89.0866,"EPHEMERIS_TYPE":0,"CLASSIFICATION_TYPE":"U","NORAD_CAT_ID":63862,"ELEMENT_SET_NO":999,"REV_AT_EPOCH":2449,"BSTAR":0.0013588435,"MEAN_MOTION_DOT":0.00037371,"MEAN_MOTION_DDOT":0},{"OBJECT_NAME":"STARLINK-33954","OBJECT_ID":"2025-093AD","EPOCH":"2025-10-07T06:10:17.918112","MEAN_MOTION":15.27617926,"ECCENTRICITY":0.00016871,"INCLINATION":43.003,"RA_OF_ASC_NODE":224.6461,"ARG_OF_PERICENTER":270.3874,"MEAN_ANOMALY":89.6784,"EPHEMERIS_TYPE":0,"CLASSIFICATION_TYPE":"U","NORAD_CAT_ID":63863,"ELEMENT_SET_NO":999,"REV_AT_EPOCH":2428,"BSTAR":0.0013141589,"MEAN_MOTION_DOT":0.0003612,"MEAN_MOTION_DDOT":0},{"OBJECT_NAME":"STARLINK-33863","OBJECT_ID":"2025-094A","EPOCH":"2025-10-07T07:28:22.451808","MEAN_MOTION":14.98337466,"ECCENTRICITY":0.00025653,"INCLINATION":70.0005,"RA_OF_ASC_NODE":261.3798,"ARG_OF_PERICENTER":263.9698,"MEAN_ANOMALY":96.1169,"EPHEMERIS_TYPE":0,"CLASSIFICATION_TYPE":"U","NORAD_CAT_ID":63864,"ELEMENT_SET_NO":999,"REV_AT_EPOCH":2422,"BSTAR":-0.00053665421,"MEAN_MOTION_DOT":-6.491e-5,"MEAN_MOTION_DDOT":0},{"OBJECT_NAME":"STARLINK-33897","OBJECT_ID":"2025-094B","EPOCH":"2025-10-07T08:30:11.130336","MEAN_MOTION":14.99151408,"ECCENTRICITY":0.00027639,"INCLINATION":69.9997,"RA_OF_ASC_NODE":261.1223,"ARG_OF_PERICENTER":273.4595,"MEAN_ANOMALY":86.6249,"EPHEMERIS_TYPE":0,"CLASSIFICATION_TYPE":"U","NORAD_CAT_ID":63865,"ELEMENT_SET_NO":999,"REV_AT_EPOCH":2445,"BSTAR":0.00049290165,"MEAN_MOTION_DOT":5.919e-5,"MEAN_MOTION_DDOT":0},{"OBJECT_NAME":"STARLINK-34022","OBJECT_ID":"2025-094C","EPOCH":"2025-10-07T08:40:43.299264","MEAN_MOTION":14.98343374,"ECCENTRICITY":0.00028806,"INCLINATION":70.0001,"RA_OF_ASC_NODE":261.1453,"ARG_OF_PERICENTER":272.9886,"MEAN_ANOMALY":87.0944,"EPHEMERIS_TYPE":0,"CLASSIFICATION_TYPE":"U","NORAD_CAT_ID":63866,"ELEMENT_SET_NO":999,"REV_AT_EPOCH":2423,"BSTAR":0.00049619577,"MEAN_MOTION_DOT":5.834e-5,"MEAN_MOTION_DDOT":0},{"OBJECT_NAME":"STARLINK-33979","OBJECT_ID":"2025-094D","EPOCH":"2025-10-07T08:32:47.380416","MEAN_MOTION":14.9912965,"ECCENTRICITY":0.000289,"INCLINATION":70,"RA_OF_ASC_NODE":261.1314,"ARG_OF_PERICENTER":271.7498,"MEAN_ANOMALY":88.3331,"EPHEMERIS_TYPE":0,"CLASSIFICATION_TYPE":"U","NORAD_CAT_ID":63867,"ELEMENT_SET_NO":999,"REV_AT_EPOCH":2423,"BSTAR":-0.00042951223,"MEAN_MOTION_DOT":-5.322e-5,"MEAN_MOTION_DDOT":0},{"OBJECT_NAME":"STARLINK-34007","OBJECT_ID":"2025-094E","EPOCH":"2025-10-07T09:03:08.352000","MEAN_MOTION":14.99127499,"ECCENTRICITY":0.00031084,"INCLINATION":69.9999,"RA_OF_ASC_NODE":261.2045,"ARG_OF_PERICENTER":264.771,"MEAN_ANOMALY":95.3095,"EPHEMERIS_TYPE":0,"CLASSIFICATION_TYPE":"U","NORAD_CAT_ID":63868,"ELEMENT_SET_NO":999,"REV_AT_EPOCH":2423,"BSTAR":0.0009255171,"MEAN_MOTION_DOT":0.00011198,"MEAN_MOTION_DDOT":0},{"OBJECT_NAME":"STARLINK-34006","OBJECT_ID":"2025-094F","EPOCH":"2025-10-07T09:37:37.803072","MEAN_MOTION":14.99138113,"ECCENTRICITY":0.00027189,"INCLINATION":70.0007,"RA_OF_ASC_NODE":260.8833,"ARG_OF_PERICENTER":270.0102,"MEAN_ANOMALY":90.0746,"EPHEMERIS_TYPE":0,"CLASSIFICATION_TYPE":"U","NORAD_CAT_ID":63869,"ELEMENT_SET_NO":999,"REV_AT_EPOCH":2424,"BSTAR":0.00034841427,"MEAN_MOTION_DOT":4.154e-5,"MEAN_MOTION_DDOT":0},{"OBJECT_NAME":"STARLINK-33986","OBJECT_ID":"2025-094G","EPOCH":"2025-10-07T09:46:49.719360","MEAN_MOTION":14.98304671,"ECCENTRICITY":0.00030756,"INCLINATION":70.0005,"RA_OF_ASC_NODE":260.9023,"ARG_OF_PERICENTER":279.1772,"MEAN_ANOMALY":80.9039,"EPHEMERIS_TYPE":0,"CLASSIFICATION_TYPE":"U","NORAD_CAT_ID":63870,"ELEMENT_SET_NO":999,"REV_AT_EPOCH":2424,"BSTAR":-0.00021644372,"MEAN_MOTION_DOT":-2.673e-5,"MEAN_MOTION_DDOT":0},{"OBJECT_NAME":"STARLINK-34013","OBJECT_ID":"2025-094H","EPOCH":"2025-10-07T16:00:03.000096","MEAN_MOTION":14.99149203,"ECCENTRICITY":0.00028137,"INCLINATION":70.0003,"RA_OF_ASC_NODE":260.1984,"ARG_OF_PERICENTER":270.7281,"MEAN_ANOMALY":98.1721,"EPHEMERIS_TYPE":0,"CLASSIFICATION_TYPE":"U","NORAD_CAT_ID":63871,"ELEMENT_SET_NO":999,"REV_AT_EPOCH":576,"BSTAR":-0.00085541057,"MEAN_MOTION_DOT":-0.00010504,"MEAN_MOTION_DDOT":0},{"OBJECT_NAME":"STARLINK-34059","OBJECT_ID":"2025-094J","EPOCH":"2025-10-07T08:57:29.277792","MEAN_MOTION":14.99152786,"ECCENTRICITY":0.00032652,"INCLINATION":69.9995,"RA_OF_ASC_NODE":261.1923,"ARG_OF_PERICENTER":273.358,"MEAN_ANOMALY":86.7206,"EPHEMERIS_TYPE":0,"CLASSIFICATION_TYPE":"U","NORAD_CAT_ID":63872,"ELEMENT_SET_NO":999,"REV_AT_EPOCH":2423,"BSTAR":0.00032651869,"MEAN_MOTION_DOT":3.888e-5,"MEAN_MOTION_DDOT":0},{"OBJECT_NAME":"STARLINK-33987","OBJECT_ID":"2025-094K","EPOCH":"2025-10-07T09:40:52.807872","MEAN_MOTION":14.99159201,"ECCENTRICITY":0.00035862,"INCLINATION":69.9998,"RA_OF_ASC_NODE":260.8929,"ARG_OF_PERICENTER":279.2967,"MEAN_ANOMALY":80.7787,"EPHEMERIS_TYPE":0,"CLASSIFICATION_TYPE":"U","NORAD_CAT_ID":63873,"ELEMENT_SET_NO":999,"REV_AT_EPOCH":2424,"BSTAR":0.0003001864,"MEAN_MOTION_DOT":3.568e-5,"MEAN_MOTION_DDOT":0},{"OBJECT_NAME":"STARLINK-34052","OBJECT_ID":"2025-094L","EPOCH":"2025-10-07T08:46:29.672544","MEAN_MOTION":14.98343588,"ECCENTRICITY":0.00029492,"INCLINATION":69.9998,"RA_OF_ASC_NODE":261.1619,"ARG_OF_PERICENTER":276.8619,"MEAN_ANOMALY":83.2204,"EPHEMERIS_TYPE":0,"CLASSIFICATION_TYPE":"U","NORAD_CAT_ID":63874,"ELEMENT_SET_NO":999,"REV_AT_EPOCH":2423,"BSTAR":0.00032520007,"MEAN_MOTION_DOT":3.791e-5,"MEAN_MOTION_DDOT":0},{"OBJECT_NAME":"STARLINK-34023","OBJECT_ID":"2025-094M","EPOCH":"2025-10-07T09:38:15.832032","MEAN_MOTION":14.99153294,"ECCENTRICITY":0.00030853,"INCLINATION":70.0003,"RA_OF_ASC_NODE":260.8849,"ARG_OF_PERICENTER":268.3499,"MEAN_ANOMALY":91.7307,"EPHEMERIS_TYPE":0,"CLASSIFICATION_TYPE":"U","NORAD_CAT_ID":63875,"ELEMENT_SET_NO":999,"REV_AT_EPOCH":2424,"BSTAR":0.00034935415,"MEAN_MOTION_DOT":4.167e-5,"MEAN_MOTION_DDOT":0}]
